STARLINK-36623          
1 67644U 26020AD  26039.50002314 -.01753199  00000+0 -73143-2 0  9998
2 67644  42.9994 319.5068 0001570 260.7736 324.3057 15.87702758  2693
STARLINK-36619          
1 67645U 26020AE  26039.50002314 -.01755790  00000+0 -73929-2 0  9990
2 67645  42.9994 319.5159 0001686 257.8832 323.6431 15.87522921  2697
ALSAT-3B                
1 67646U 26021A   26039.48747751  .00008293  00000+0  34978-3 0  9998
2 67646  97.4721 113.9490 0011572 234.1538 125.8625 15.23502648  1275
CZ-2C R/B               
1 67647U 26021B   26039.48969170  .00016602  00000+0  50299-3 0  9997
2 67647  97.6561 114.3694 0153994 112.6372 249.1234 15.23276744  1251
STARLINK-36719          
1 67648U 26022A   26039.50002314 -.01479923  66912-3 -31239-2 0  9992
2 67648  97.2831  71.8938 0001140  89.2675 301.7971 15.98925763  2209
STARLINK-36342          
1 67649U 26022B   26039.50002314 -.01457229  65106-3 -30555-2 0  9992
2 67649  97.2829  71.8942 0001122  92.3611 300.2898 15.99042428  2208
STARLINK-36703          
1 67650U 26022C   26039.50002314 -.01443611  64093-3 -30004-2 0  9997
2 67650  97.2828  71.8952 0001148  86.9428 307.6511 15.99198363  2206
STARLINK-36696          
1 67651U 26022D   26039.50002314 -.01437363  63702-3 -29586-2 0  9994
2 67651  97.2826  71.8960 0001126  87.5601 309.0525 15.99370727  2207
STARLINK-36699          
1 67652U 26022E   26039.50002314 -.01433010  63446-3 -29259-2 0  9992
2 67652  97.2827  71.8968 0001106  93.3932 304.9872 15.99514295  2206
STARLINK-36694          
1 67653U 26022F   26039.50002314 -.01447019  64745-3 -29216-2 0  9993
2 67653  97.2826  71.8979 0001060  95.4965 305.0710 15.99715427  2209
STARLINK-36620          
1 67654U 26022G   26039.50002314 -.01439572  64245-3 -28800-2 0  9992
2 67654  97.2824  71.8984 0001089  88.9445 313.5643 15.99877382  2203
STARLINK-36720          
1 67655U 26022H   26039.50002314 -.01432690  63816-3 -28348-2 0  9997
2 67655  97.2825  71.8995 0001048  94.3383 310.3803 16.00071744  2208
