CCSDS_OMM_VERS = 2.0
CREATION_DATE  = 
ORIGINATOR     = 

OBJECT_NAME    = STARLINK-36623
OBJECT_ID      = 2026-020AD
CENTER_NAME    = EARTH
REF_FRAME      = TEME
TIME_SYSTEM    = UTC
MEAN_ELEMENT_THEORY = SGP/SGP4

EPOCH          = 2026-02-08T12:00:01.999296
MEAN_MOTION    = 15.87702758
ECCENTRICITY   = .000157
INCLINATION    = 42.9994
RA_OF_ASC_NODE = 319.5068
ARG_OF_PERICENTER = 260.7736
MEAN_ANOMALY   = 324.3057

EPHEMERIS_TYPE = 0
CLASSIFICATION_TYPE = U
NORAD_CAT_ID   = 67644
ELEMENT_SET_NO = 999
REV_AT_EPOCH   = 269
BSTAR          = -.73143E-2
MEAN_MOTION_DOT = -.1753199E-1
MEAN_MOTION_DDOT = 0

CCSDS_OMM_VERS = 2.0
CREATION_DATE  = 
ORIGINATOR     = 

OBJECT_NAME    = STARLINK-36619
OBJECT_ID      = 2026-020AE
CENTER_NAME    = EARTH
REF_FRAME      = TEME
TIME_SYSTEM    = UTC
MEAN_ELEMENT_THEORY = SGP/SGP4

EPOCH          = 2026-02-08T12:00:01.999296
MEAN_MOTION    = 15.87522921
ECCENTRICITY   = .0001686
INCLINATION    = 42.9994
RA_OF_ASC_NODE = 319.5159
ARG_OF_PERICENTER = 257.8832
MEAN_ANOMALY   = 323.6431

EPHEMERIS_TYPE = 0
CLASSIFICATION_TYPE = U
NORAD_CAT_ID   = 67645
ELEMENT_SET_NO = 999
REV_AT_EPOCH   = 269
BSTAR          = -.73929E-2
MEAN_MOTION_DOT = -.175579E-1
MEAN_MOTION_DDOT = 0

CCSDS_OMM_VERS = 2.0
CREATION_DATE  = 
ORIGINATOR     = 

OBJECT_NAME    = ALSAT-3B
OBJECT_ID      = 2026-021A
CENTER_NAME    = EARTH
REF_FRAME      = TEME
TIME_SYSTEM    = UTC
MEAN_ELEMENT_THEORY = SGP/SGP4

EPOCH          = 2026-02-08T11:41:58.056864
MEAN_MOTION    = 15.23502648
ECCENTRICITY   = .0011572
INCLINATION    = 97.4721
RA_OF_ASC_NODE = 113.9490
ARG_OF_PERICENTER = 234.1538
MEAN_ANOMALY   = 125.8625

EPHEMERIS_TYPE = 0
CLASSIFICATION_TYPE = U
NORAD_CAT_ID   = 67646
ELEMENT_SET_NO = 999
REV_AT_EPOCH   = 127
BSTAR          = .34978E-3
MEAN_MOTION_DOT = .8293E-4
MEAN_MOTION_DDOT = 0

CCSDS_OMM_VERS = 2.0
CREATION_DATE  = 
ORIGINATOR     = 

OBJECT_NAME    = CZ-2C R/B
OBJECT_ID      = 2026-021B
CENTER_NAME    = EARTH
REF_FRAME      = TEME
TIME_SYSTEM    = UTC
MEAN_ELEMENT_THEORY = SGP/SGP4

EPOCH          = 2026-02-08T11:45:09.362880
MEAN_MOTION    = 15.23276744
ECCENTRICITY   = .0153994
INCLINATION    = 97.6561
RA_OF_ASC_NODE = 114.3694
ARG_OF_PERICENTER = 112.6372
MEAN_ANOMALY   = 249.1234

EPHEMERIS_TYPE = 0
CLASSIFICATION_TYPE = U
NORAD_CAT_ID   = 67647
ELEMENT_SET_NO = 999
REV_AT_EPOCH   = 125
BSTAR          = .50299E-3
MEAN_MOTION_DOT = .16602E-3
MEAN_MOTION_DDOT = 0

CCSDS_OMM_VERS = 2.0
CREATION_DATE  = 
ORIGINATOR     = 

OBJECT_NAME    = STARLINK-36719
OBJECT_ID      = 2026-022A
CENTER_NAME    = EARTH
REF_FRAME      = TEME
TIME_SYSTEM    = UTC
MEAN_ELEMENT_THEORY = SGP/SGP4

EPOCH          = 2026-02-08T12:00:01.999296
MEAN_MOTION    = 15.98925763
ECCENTRICITY   = .000114
INCLINATION    = 97.2831
RA_OF_ASC_NODE = 71.8938
ARG_OF_PERICENTER = 89.2675
MEAN_ANOMALY   = 301.7971

EPHEMERIS_TYPE = 0
CLASSIFICATION_TYPE = U
NORAD_CAT_ID   = 67648
ELEMENT_SET_NO = 999
REV_AT_EPOCH   = 220
BSTAR          = -.31239E-2
MEAN_MOTION_DOT = -.1479923E-1
MEAN_MOTION_DDOT = .66912E-3

CCSDS_OMM_VERS = 2.0
CREATION_DATE  = 
ORIGINATOR     = 

OBJECT_NAME    = STARLINK-36342
OBJECT_ID      = 2026-022B
CENTER_NAME    = EARTH
REF_FRAME      = TEME
TIME_SYSTEM    = UTC
MEAN_ELEMENT_THEORY = SGP/SGP4

EPOCH          = 2026-02-08T12:00:01.999296
MEAN_MOTION    = 15.99042428
ECCENTRICITY   = .0001122
INCLINATION    = 97.2829
RA_OF_ASC_NODE = 71.8942
ARG_OF_PERICENTER = 92.3611
MEAN_ANOMALY   = 300.2898

EPHEMERIS_TYPE = 0
CLASSIFICATION_TYPE = U
NORAD_CAT_ID   = 67649
ELEMENT_SET_NO = 999
REV_AT_EPOCH   = 220
BSTAR          = -.30555E-2
MEAN_MOTION_DOT = -.1457229E-1
MEAN_MOTION_DDOT = .65106E-3

CCSDS_OMM_VERS = 2.0
CREATION_DATE  = 
ORIGINATOR     = 

OBJECT_NAME    = STARLINK-36703
OBJECT_ID      = 2026-022C
CENTER_NAME    = EARTH
REF_FRAME      = TEME
TIME_SYSTEM    = UTC
MEAN_ELEMENT_THEORY = SGP/SGP4

EPOCH          = 2026-02-08T12:00:01.999296
MEAN_MOTION    = 15.99198363
ECCENTRICITY   = .0001148
INCLINATION    = 97.2828
RA_OF_ASC_NODE = 71.8952
ARG_OF_PERICENTER = 86.9428
MEAN_ANOMALY   = 307.6511

EPHEMERIS_TYPE = 0
CLASSIFICATION_TYPE = U
NORAD_CAT_ID   = 67650
ELEMENT_SET_NO = 999
REV_AT_EPOCH   = 220
BSTAR          = -.30004E-2
MEAN_MOTION_DOT = -.1443611E-1
MEAN_MOTION_DDOT = .64093E-3

CCSDS_OMM_VERS = 2.0
CREATION_DATE  = 
ORIGINATOR     = 

OBJECT_NAME    = STARLINK-36696
OBJECT_ID      = 2026-022D
CENTER_NAME    = EARTH
REF_FRAME      = TEME
TIME_SYSTEM    = UTC
MEAN_ELEMENT_THEORY = SGP/SGP4

EPOCH          = 2026-02-08T12:00:01.999296
MEAN_MOTION    = 15.99370727
ECCENTRICITY   = .0001126
INCLINATION    = 97.2826
RA_OF_ASC_NODE = 71.8960
ARG_OF_PERICENTER = 87.5601
MEAN_ANOMALY   = 309.0525

EPHEMERIS_TYPE = 0
CLASSIFICATION_TYPE = U
NORAD_CAT_ID   = 67651
ELEMENT_SET_NO = 999
REV_AT_EPOCH   = 220
BSTAR          = -.29586E-2
MEAN_MOTION_DOT = -.1437363E-1
MEAN_MOTION_DDOT = .63702E-3

CCSDS_OMM_VERS = 2.0
CREATION_DATE  = 
ORIGINATOR     = 

OBJECT_NAME    = STARLINK-36699
OBJECT_ID      = 2026-022E
CENTER_NAME    = EARTH
REF_FRAME      = TEME
TIME_SYSTEM    = UTC
MEAN_ELEMENT_THEORY = SGP/SGP4

EPOCH          = 2026-02-08T12:00:01.999296
MEAN_MOTION    = 15.99514295
ECCENTRICITY   = .0001106
INCLINATION    = 97.2827
RA_OF_ASC_NODE = 71.8968
ARG_OF_PERICENTER = 93.3932
MEAN_ANOMALY   = 304.9872

EPHEMERIS_TYPE = 0
CLASSIFICATION_TYPE = U
NORAD_CAT_ID   = 67652
ELEMENT_SET_NO = 999
REV_AT_EPOCH   = 220
BSTAR          = -.29259E-2
MEAN_MOTION_DOT = -.143301E-1
MEAN_MOTION_DDOT = .63446E-3

CCSDS_OMM_VERS = 2.0
CREATION_DATE  = 
ORIGINATOR     = 

OBJECT_NAME    = STARLINK-36694
OBJECT_ID      = 2026-022F
CENTER_NAME    = EARTH
REF_FRAME      = TEME
TIME_SYSTEM    = UTC
MEAN_ELEMENT_THEORY = SGP/SGP4

EPOCH          = 2026-02-08T12:00:01.999296
MEAN_MOTION    = 15.99715427
ECCENTRICITY   = .000106
INCLINATION    = 97.2826
RA_OF_ASC_NODE = 71.8979
ARG_OF_PERICENTER = 95.4965
MEAN_ANOMALY   = 305.0710

EPHEMERIS_TYPE = 0
CLASSIFICATION_TYPE = U
NORAD_CAT_ID   = 67653
ELEMENT_SET_NO = 999
REV_AT_EPOCH   = 220
BSTAR          = -.29216E-2
MEAN_MOTION_DOT = -.1447019E-1
MEAN_MOTION_DDOT = .64745E-3

CCSDS_OMM_VERS = 2.0
CREATION_DATE  = 
ORIGINATOR     = 

OBJECT_NAME    = STARLINK-36620
OBJECT_ID      = 2026-022G
CENTER_NAME    = EARTH
REF_FRAME      = TEME
TIME_SYSTEM    = UTC
MEAN_ELEMENT_THEORY = SGP/SGP4

EPOCH          = 2026-02-08T12:00:01.999296
MEAN_MOTION    = 15.99877382
ECCENTRICITY   = .0001089
INCLINATION    = 97.2824
RA_OF_ASC_NODE = 71.8984
ARG_OF_PERICENTER = 88.9445
MEAN_ANOMALY   = 313.5643

EPHEMERIS_TYPE = 0
CLASSIFICATION_TYPE = U
NORAD_CAT_ID   = 67654
ELEMENT_SET_NO = 999
REV_AT_EPOCH   = 220
BSTAR          = -.288E-2
MEAN_MOTION_DOT = -.1439572E-1
MEAN_MOTION_DDOT = .64245E-3

CCSDS_OMM_VERS = 2.0
CREATION_DATE  = 
ORIGINATOR     = 

OBJECT_NAME    = STARLINK-36720
OBJECT_ID      = 2026-022H
CENTER_NAME    = EARTH
REF_FRAME      = TEME
TIME_SYSTEM    = UTC
MEAN_ELEMENT_THEORY = SGP/SGP4

EPOCH          = 2026-02-08T12:00:01.999296
MEAN_MOTION    = 16.00071744
ECCENTRICITY   = .0001048
INCLINATION    = 97.2825
RA_OF_ASC_NODE = 71.8995
ARG_OF_PERICENTER = 94.3383
MEAN_ANOMALY   = 310.3803

EPHEMERIS_TYPE = 0
CLASSIFICATION_TYPE = U
NORAD_CAT_ID   = 67655
ELEMENT_SET_NO = 999
REV_AT_EPOCH   = 220
BSTAR          = -.28348E-2
MEAN_MOTION_DOT = -.143269E-1
MEAN_MOTION_DDOT = .63816E-3

